[{"OBJECT_NAME":"IRIDIUM 167","OBJECT_ID":"2019-002K","EPOCH":"2026-03-09T22:39:34.779456","MEAN_MOTION":14.34218835,"ECCENTRICITY":0.00018219,"INCLINATION":86.3972,"RA_OF_ASC_NODE":35.0554,"ARG_OF_PERICENTER":93.0141,"MEAN_ANOMALY":267.1263,"EPHEMERIS_TYPE":0,"CLASSIFICATION_TYPE":"U","NORAD_CAT_ID":43931,"ELEMENT_SET_NO":999,"REV_AT_EPOCH":37473,"BSTAR":-8.039993e-6,"MEAN_MOTION_DOT":-3.0e-8,"MEAN_MOTION_DDOT":0},{"OBJECT_NAME":"CZ-6A DEB","OBJECT_ID":"2024-140NP","EPOCH":"2026-03-09T14:04:11.930880","MEAN_MOTION":14.52978035,"ECCENTRICITY":0.0100928,"INCLINATION":89.0145,"RA_OF_ASC_NODE":283.8713,"ARG_OF_PERICENTER":259.2955,"MEAN_ANOMALY":99.6877,"EPHEMERIS_TYPE":0,"CLASSIFICATION_TYPE":"U","NORAD_CAT_ID":61097,"ELEMENT_SET_NO":999,"REV_AT_EPOCH":8092,"BSTAR":0.00050119,"MEAN_MOTION_DOT":2.225e-5,"MEAN_MOTION_DDOT":0}]
